1 48430U 21040C   23076.76863420  .00025375  00000-0  17146-2 0  9993
2 48430  53.0541   0.4839 0002982  84.4315 275.7014 15.06435004103007
1 48430U 21040C   23077.16671763  .00032654  00000-0  22005-2 0  9993
2 48430  53.0541 358.6969 0001521  96.4236 263.6926 15.06407456104348
1 48430U 21040C   23077.49844700  .00035413  00000-0  23824-2 0  9998
2 48430  53.0541 357.2076 0001521  99.1476 260.9685 15.06430751103118
1 48430U 21040C   23078.49363714 -.00001157  00000-0 -58724-4 0  9999
2 48430  53.0552 352.7394 0003582  79.9078 280.2315 15.06408750103261
1 48430U 21040C   23078.49363714 -.00001157  00000-0 -58724-4 0  9999
2 48430  53.0552 352.7394 0003582  79.9078 280.2315 15.06408750104543
1 48430U 21040C   23078.89172034  .00001508  00000-0  12021-3 0  9993
2 48430  53.0552 350.9530 0001719  78.9693 281.1489 15.06371658103320
1 48430U 21040C   23079.02441829  .00016418  00000-0  11194-2 0  9995
2 48430  53.0553 350.3574 0001593  77.8544 282.2624 15.06369806103343
1 48430U 21040C   23079.02441829  .00016418  00000-0  11194-2 0  9995
2 48430  53.0553 350.3574 0001593  77.8544 282.2624 15.06369806104625
1 48430U 21040C   23080.15230862  .00038847  00000-0  26090-2 0  9995
2 48430  53.0554 345.2944 0001574  76.4108 283.7056 15.06450193103512
1 48430U 21040C   23080.15230862  .00038847  00000-0  26090-2 0  9995
2 48430  53.0554 345.2944 0001574  76.4108 283.7056 15.06450193104793
1 48430U 21040C   23081.21388451  .00026559  00000-0  17962-2 0  9996
2 48430  53.0552 340.5302 0001037  97.8506 262.2601 15.06379538104959
1 48430U 21040C   23081.87734943  .00027437  00000-0  18526-2 0  9992
2 48430  53.0551 337.5524 0001043 104.0648 256.0457 15.06422081103776
1 48430U 21040C   23082.07638489  .00027582  00000-0  18615-2 0  9993
2 48430  53.0545 336.6585 0001029 100.1739 259.9367 15.06436731103801
1 48430U 21040C   23082.07638489  .00027582  00000-0  18615-2 0  9993
2 48430  53.0545 336.6585 0001029 100.1739 259.9367 15.06436731105083
1 48430U 21040C   23082.87255091  .00036476  00000-0  24537-2 0  9997
2 48430  53.0536 333.0830 0001297  68.4518 291.6609 15.06420310105207
1 48430U 21040C   23082.93889534  .00032129  00000-0  21648-2 0  9990
2 48430  53.0533 332.7844 0001122 113.2534 246.8573 15.06421336103938
1 48430U 21040C   23083.07158800  .00014892  00000-0  10160-2 0  9995
2 48430  53.0536 332.1885 0001083  98.6669 261.4443 15.06418661103959
1 48430U 21040C   23083.07158800  .00014892  00000-0  10160-2 0  9995
2 48430  53.0536 332.1885 0001083  98.6669 261.4443 15.06418661105232
1 48430U 21040C   23083.86771129  .00044155  00000-0  29565-2 0  9991
2 48430  53.0535 328.6144 0001002  80.4817 279.6285 15.06502777105354
1 48430U 21040C   23083.93405191  .00042465  00000-0  28438-2 0  9992
2 48430  53.0532 328.3166 0000979  83.3124 276.7977 15.06514843104089
1 48430U 21040C   23084.86291800  .00021792  00000-0  14783-2 0  9993
2 48430  53.0532 324.1468 0001205 140.2356 219.8722 15.06375755105502
1 48430U 21040C   23084.92926836  .00001548  00000-0  12297-3 0  9990
2 48430  53.0532 323.8495 0000960 101.1776 258.9321 15.06333553104235
1 48430U 21040C   23084.99561984  .00014672  00000-0  10038-2 0  9998
2 48430  53.0532 323.5515 0000944  99.6116 260.4979 15.06327409105529
1 48430U 21040C   23085.92451079  .00029824  00000-0  20143-2 0  9998
2 48430  53.0542 319.3823 0001022 103.6328 256.4775 15.06369926104386
1 48430U 21040C   23086.05720618  .00030075  00000-0  20305-2 0  9991
2 48430  53.0540 318.7859 0001012 104.4595 255.6506 15.06378422104407
1 48430U 21040C   23086.05720618  .00030075  00000-0  20305-2 0  9991
2 48430  53.0540 318.7859 0001012 104.4595 255.6506 15.06378422105688
1 48430U 21040C   23086.91972285  .00020656  00000-0  14015-2 0  9990
2 48430  53.0540 314.9145 0000951 103.3135 256.7961 15.06400298104530
1 48430U 21040C   23086.91972285  .00020656  00000-0  14015-2 0  9990
2 48430  53.0540 314.9145 0000951 103.3135 256.7961 15.06400298105812
1 48430U 21040C   23087.05241582  .00021888  00000-0  14835-2 0  9993
2 48430  53.0540 314.3187 0000931 103.0003 257.1089 15.06406608104558
1 48430U 21040C   23087.84855771  .00025409  00000-0  17161-2 0  9999
2 48430  53.0537 310.7444 0000854 105.3637 254.7446 15.06453586104672
1 48430U 21040C   23087.84855771  .00025409  00000-0  17161-2 0  9999
2 48430  53.0537 310.7444 0000854 105.3637 254.7446 15.06453586105954
1 48430U 21040C   23088.04758924  .00026928  00000-0  18165-2 0  9996
2 48430  53.0535 309.8509 0000829 104.5688 255.5392 15.06467127104709
1 48430U 21040C   23088.84375928  .00027976  00000-0  18897-2 0  9999
2 48430  53.0538 306.2768 0001275 157.3429 202.7616 15.06398122104829
1 48430U 21040C   23088.84375928  .00027976  00000-0  18897-2 0  9999
2 48430  53.0538 306.2768 0001275 157.3429 202.7616 15.06398122106102
1 48430U 21040C   23088.97645857  .00028563  00000-0  19295-2 0  9990
2 48430  53.0536 305.6813 0000731  74.8468 285.2602 15.06384555106124
1 48430U 21040C   23089.77261770  .00028942  00000-0  19526-2 0  9995
2 48430  53.0530 302.1088 0000761  59.3188 300.7876 15.06425002104963
1 48430U 21040C   23090.03799820  .00032189  00000-0  21675-2 0  9994
2 48430  53.0534 300.9154 0000862  56.7373 303.3699 15.06443715106286
1 48430U 21040C   23090.83417028  .00024538  00000-0  16605-2 0  9995
2 48430  53.0531 297.3397 0000550  78.5841 281.5210 15.06400094106400
1 48430U 21040C   23091.56398204  .00016527  00000-0  11253-2 0  9993
2 48430  53.0525 294.0634 0000575  64.1769 295.9279 15.06415741105237
1 48430U 21040C   23091.56398204  .00016527  00000-0  11253-2 0  9993
2 48430  53.0525 294.0634 0000575  64.1769 295.9279 15.06415741106519
1 48430U 21040C   23091.82936261  .00023470  00000-0  15877-2 0  9994
2 48430  53.0531 292.8737 0000580  61.1320 298.9727 15.06436117105275
1 48430U 21040C   23091.82936261  .00023470  00000-0  15877-2 0  9994
2 48430  53.0531 292.8737 0000580  61.1320 298.9727 15.06436117106557
1 48430U 21040C   23092.55918088  .00017562  00000-0  11946-2 0  9990
2 48430  53.0526 289.5982 0000899  56.0218 304.0856 15.06410209105384
1 48430U 21040C   23092.55918088  .00017562  00000-0  11946-2 0  9990
2 48430  53.0526 289.5982 0000899  56.0218 304.0856 15.06410209106666
1 48430U 21040C   23092.82457029  .00020047  00000-0  13614-2 0  9999
2 48430  53.0536 288.4070 0001023  82.0918 278.0187 15.06385609105424
1 48430U 21040C   23092.82457029  .00020047  00000-0  13614-2 0  9999
2 48430  53.0536 288.4070 0001023  82.0918 278.0187 15.06385609106706
1 48430U 21040C   23093.55438294  .00019855  00000-0  13475-2 0  9993
2 48430  53.0531 285.1295 0001010  81.6662 278.4441 15.06416761105532
1 48430U 21040C   23093.81976450  .00022155  00000-0  15003-2 0  9999
2 48430  53.0532 283.9385 0000998  78.1197 281.9904 15.06431672105572
1 48430U 21040C   23094.21783322  .00023797  00000-0  16088-2 0  9995
2 48430  53.0526 282.1510 0000969  78.6199 281.4899 15.06452484106912
1 48430U 21040C   23094.48323993  .00018721  00000-0  12724-2 0  9992
2 48430  53.0528 280.9601 0000888  62.9660 297.1419 15.06398646105673
1 48430U 21040C   23094.48323993  .00018721  00000-0  12724-2 0  9992
2 48430  53.0528 280.9601 0000888  62.9660 297.1419 15.06398646106955
1 48430U 21040C   23095.54479593  .00019684  00000-0  13364-2 0  9998
2 48430  53.0631 276.2034 0002289  95.2102 264.9148 15.06407821105838
1 48430U 21040C   23095.54479593  .00019684  00000-0  13364-2 0  9998
2 48430  53.0631 276.2034 0002289  95.2102 264.9148 15.06407821107111
1 48430U 21040C   23095.81017921  .00022076  00000-0  14955-2 0  9997
2 48430  53.0526 275.0028 0000880 100.8855 259.2233 15.06420570105876
1 48430U 21040C   23096.20826447  .00020414  00000-0  13856-2 0  9995
2 48430  53.0523 273.2178 0001294  80.9419 279.1717 15.06393880107214
1 48430U 21040C   23096.47364893  .00017115  00000-0  11647-2 0  9996
2 48430  53.0530 272.0238 0001028  85.9104 274.2003 15.06411819105975
1 48430U 21040C   23096.73903327  .00020719  00000-0  14050-2 0  9991
2 48430  53.0529 270.8327 0001063  79.5389 280.5720 15.06419794106013
1 48430U 21040C   23097.46882724  .00025154  00000-0  16989-2 0  9990
2 48430  53.0537 267.5556 0001035  75.8179 284.2925 15.06458704106128
1 48430U 21040C   23097.46882724  .00025154  00000-0  16989-2 0  9990
2 48430  53.0537 267.5556 0001035  75.8179 284.2925 15.06458704107400
1 48430U 21040C   23098.19862756  .00009137  00000-0  63101-3 0  9996
2 48430  53.0536 264.2815 0001588  57.6098 302.5045 15.06430100107511
1 48430U 21040C   23098.46402715 -.00004500  00000-0 -28363-3 0  9993
2 48430  53.0537 263.0877 0002155  90.6890 269.4346 15.06367609106275
1 48430U 21040C   23098.46402715 -.00004500  00000-0 -28363-3 0  9993
2 48430  53.0537 263.0877 0002155  90.6890 269.4346 15.06367609107557
1 48430U 21040C   23098.72942571  .00020115  00000-0  13676-2 0  9999
2 48430  53.0543 261.8968 0001507  95.5797 264.5364 15.06340529107593
1 48430U 21040C   23099.45926007  .00024576  00000-0  16641-2 0  9996
2 48430  53.0534 258.6195 0001565  92.4819 267.6349 15.06375718106420
1 48430U 21040C   23099.72464979  .00023685  00000-0  16041-2 0  9995
2 48430  53.0539 257.4289 0001518  89.2353 270.8810 15.06388227106463
1 48430U 21040C   23100.12273446  .00018266  00000-0  12419-2 0  9993
2 48430  53.0541 255.6432 0001058  79.4037 280.7072 15.06401729107807
1 48430U 21040C   23100.52082170  .00022974  00000-0  15565-2 0  9995
2 48430  53.0542 253.8546 0001630 104.7281 255.3889 15.06392708106587
1 48430U 21040C   23100.52082170  .00022974  00000-0  15565-2 0  9995
2 48430  53.0542 253.8546 0001630 104.7281 255.3889 15.06392708107869
1 48430U 21040C   23100.85255481  .00020422  00000-0  13856-2 0  9995
2 48430  53.0542 252.3655 0001561  99.6331 260.4834 15.06408261106638
1 48430U 21040C   23101.44966619  .00025071  00000-0  16942-2 0  9997
2 48430  53.0537 249.6846 0001376  95.6514 264.4632 15.06439771106726
1 48430U 21040C   23102.11311597  .00025201  00000-0  17021-2 0  9995
2 48430  53.0522 246.7084 0000910  20.7011 339.4015 15.06456576108100
